[
    {
        "Altitude(m)": 611967.1471416417,
        "Argument of Periapsis(deg)": 0.0,
        "Eccentricity": 0.0,
        "Inclination(deg)": 60.0,
        "Latitude(deg)": 59.14006521109551,
        "Longitude(deg)": -53.9080179747631,
        "Mean Anomaly(deg)": -261.8182,
        "RAAN(deg)": 300.0,
        "Satellite Name": "Test1 1326",
        "Satellite Number": 1326,
        "Semi-Major Axis(m)": 6980739.136638005,
        "Time(s)": 0
    },
    {
        "Altitude(m)": 611934.3472137821,
        "Argument of Periapsis(deg)": 0.00010418945913296404,
        "Eccentricity": 0.0,
        "Inclination(deg)": 60.0,
        "Latitude(deg)": 58.986428300525134,
        "Longitude(deg)": -52.7847749020153,
        "Mean Anomaly(deg)": -261.1980938545382,
        "RAAN(deg)": 299.99957995086027,
        "Satellite Name": "Test1 1326",
        "Satellite Number": 1326,
        "Semi-Major Axis(m)": 6980739.136638005,
        "Time(s)": 10
    }
]